STARLINK-1934           
1 46792U 20074BF  26051.25002315  .00337241  00000+0  23900-2 0  9998
2 46792  53.0467 353.5449 0005449  56.8840 132.1085 15.72407525  5936
STARLINK-1942           
1 46794U 20074BH  26051.20023475  .00026785  00000+0  59077-3 0  9998
2 46794  53.0485  17.5437 0005079 351.8869   8.2054 15.43727440294365
STARLINK-1944           
1 46796U 20074BK  26051.26592568  .00099377  00000+0  11762-2 0  9995
2 46796  53.0491 356.1009 0001456  12.0431 348.0616 15.60493439294666
STARLINK-1777           
1 47122U 20088A   26051.25002315  .00810064  00000+0  14618-1 0  9995
2 47122  53.0553   7.3631 0001284  77.7001 315.2980 15.47041219  5889
STARLINK-1812           
1 47126U 20088E   26051.28507314  .00025409  00000+0  14023-2 0  9993
2 47126  53.0811  18.7099 0002960  76.6898 283.4425 15.13810995289239
STARLINK-1843           
1 47133U 20088M   26051.25002315  .00326572  00000+0  17842-2 0  9996
2 47133  53.0486 330.9729 0001273  38.8857 339.5049 15.78417867  6004
STARLINK-1845           
1 47135U 20088P   26051.16297824  .00036355  00000+0  61117-3 0  9991
2 47135  53.0556   1.8369 0001556  96.5438 263.5748 15.51426011289454
STARLINK-1856           
1 47143U 20088X   26051.25002315  .00102929  00000+0  20637-2 0  9991
2 47143  53.0551 356.5804 0009122  84.9750 342.8047 15.45874328  5884
STARLINK-1871           
1 47157U 20088AM  26051.27659719  .00071928  00000+0  24272-2 0  9997
2 47157  53.1565  17.2509 0000997  93.6163 266.4952 15.30067544289253
STARLINK-1873           
1 47158U 20088AN  26051.25002848  .00084120  00000+0  12855-2 0  9993
2 47158  53.0525 353.2209 0010993  81.4995 278.7260 15.53647584289581
STARLINK-1876           
1 47161U 20088AR  26051.25576884  .00093107  00000+0  13674-2 0  9998
2 47161  53.0526 356.4420 0006959  89.5463 270.6344 15.54732750289543
STARLINK-1888           
1 47171U 20088BB  26051.13128641  .00032550  00000+0  65887-3 0  9999
2 47171  53.0558   3.3420 0005472  93.9930 266.1702 15.46149458289438
STARLINK-1912           
1 47178U 20088BJ  26051.25002315  .00191085  00000+0  30132-2 0  9991
2 47178  53.0549   5.6122 0009524  90.6573  83.1597 15.52337589  5894
STARLINK-1913           
1 47179U 20088BK  26051.29958489  .00004228  00000+0  15875-3 0  9998
2 47179  53.1570  27.8182 0001807  89.6006 270.5201 15.29362206289107
STARLINK-2017           
1 47351U 21005C   26051.26415925  .00002652  00000+0  10163-3 0  9994
2 47351  53.1578  94.6086 0001274  90.1295 269.9852 15.30196884281056
STARLINK-2034           
1 47352U 21005D   26051.19010102  .00000861  00000+0  41212-4 0  9995
2 47352  53.1600 134.0280 0001331  85.0049 275.1104 15.30184414280494
