[{"OBJECT_NAME":"STARLINK-1934","OBJECT_ID":"2020-074BF","EPOCH":"2026-02-20T06:00:02.000160","MEAN_MOTION":15.72407525,"ECCENTRICITY":0.00054499,"INCLINATION":53.0467,"RA_OF_ASC_NODE":353.5449,"ARG_OF_PERICENTER":56.884,"MEAN_ANOMALY":132.1085,"EPHEMERIS_TYPE":0,"CLASSIFICATION_TYPE":"U","NORAD_CAT_ID":46792,"ELEMENT_SET_NO":999,"REV_AT_EPOCH":593,"BSTAR":0.0023899926,"MEAN_MOTION_DOT":0.00337241,"MEAN_MOTION_DDOT":0},{"OBJECT_NAME":"STARLINK-1942","OBJECT_ID":"2020-074BH","EPOCH":"2026-02-20T04:48:20.282400","MEAN_MOTION":15.4372744,"ECCENTRICITY":0.00050797,"INCLINATION":53.0485,"RA_OF_ASC_NODE":17.5437,"ARG_OF_PERICENTER":351.8869,"MEAN_ANOMALY":8.2054,"EPHEMERIS_TYPE":0,"CLASSIFICATION_TYPE":"U","NORAD_CAT_ID":46794,"ELEMENT_SET_NO":999,"REV_AT_EPOCH":29436,"BSTAR":0.00059076541,"MEAN_MOTION_DOT":0.00026785,"MEAN_MOTION_DDOT":0},{"OBJECT_NAME":"STARLINK-1944","OBJECT_ID":"2020-074BK","EPOCH":"2026-02-20T06:22:55.978752","MEAN_MOTION":15.60493439,"ECCENTRICITY":0.0001456,"INCLINATION":53.0491,"RA_OF_ASC_NODE":356.1009,"ARG_OF_PERICENTER":12.0431,"MEAN_ANOMALY":348.0616,"EPHEMERIS_TYPE":0,"CLASSIFICATION_TYPE":"U","NORAD_CAT_ID":46796,"ELEMENT_SET_NO":999,"REV_AT_EPOCH":29466,"BSTAR":0.001176228,"MEAN_MOTION_DOT":0.00099377,"MEAN_MOTION_DDOT":0},{"OBJECT_NAME":"STARLINK-1777","OBJECT_ID":"2020-088A","EPOCH":"2026-02-20T06:00:02.000160","MEAN_MOTION":15.47041219,"ECCENTRICITY":0.00012843,"INCLINATION":53.0553,"RA_OF_ASC_NODE":7.3631,"ARG_OF_PERICENTER":77.7001,"MEAN_ANOMALY":315.298,"EPHEMERIS_TYPE":0,"CLASSIFICATION_TYPE":"U","NORAD_CAT_ID":47122,"ELEMENT_SET_NO":999,"REV_AT_EPOCH":588,"BSTAR":0.014618483,"MEAN_MOTION_DOT":0.00810064,"MEAN_MOTION_DDOT":0},{"OBJECT_NAME":"STARLINK-1812","OBJECT_ID":"2020-088E","EPOCH":"2026-02-20T06:50:30.319296","MEAN_MOTION":15.13810995,"ECCENTRICITY":0.00029602,"INCLINATION":53.0811,"RA_OF_ASC_NODE":18.7099,"ARG_OF_PERICENTER":76.6898,"MEAN_ANOMALY":283.4425,"EPHEMERIS_TYPE":0,"CLASSIFICATION_TYPE":"U","NORAD_CAT_ID":47126,"ELEMENT_SET_NO":999,"REV_AT_EPOCH":28923,"BSTAR":0.0014022735,"MEAN_MOTION_DOT":0.00025409,"MEAN_MOTION_DDOT":0},{"OBJECT_NAME":"STARLINK-1843","OBJECT_ID":"2020-088M","EPOCH":"2026-02-20T06:00:02.000160","MEAN_MOTION":15.78417867,"ECCENTRICITY":0.00012731,"INCLINATION":53.0486,"RA_OF_ASC_NODE":330.9729,"ARG_OF_PERICENTER":38.8857,"MEAN_ANOMALY":339.5049,"EPHEMERIS_TYPE":0,"CLASSIFICATION_TYPE":"U","NORAD_CAT_ID":47133,"ELEMENT_SET_NO":999,"REV_AT_EPOCH":600,"BSTAR":0.0017842268,"MEAN_MOTION_DOT":0.00326572,"MEAN_MOTION_DDOT":0},{"OBJECT_NAME":"STARLINK-1845","OBJECT_ID":"2020-088P","EPOCH":"2026-02-20T03:54:41.319936","MEAN_MOTION":15.51426011,"ECCENTRICITY":0.00015567,"INCLINATION":53.0556,"RA_OF_ASC_NODE":1.8369,"ARG_OF_PERICENTER":96.5438,"MEAN_ANOMALY":263.5748,"EPHEMERIS_TYPE":0,"CLASSIFICATION_TYPE":"U","NORAD_CAT_ID":47135,"ELEMENT_SET_NO":999,"REV_AT_EPOCH":28945,"BSTAR":0.00061117427,"MEAN_MOTION_DOT":0.00036355,"MEAN_MOTION_DDOT":0},{"OBJECT_NAME":"STARLINK-1856","OBJECT_ID":"2020-088X","EPOCH":"2026-02-20T06:00:02.000160","MEAN_MOTION":15.45874328,"ECCENTRICITY":0.00091226,"INCLINATION":53.0551,"RA_OF_ASC_NODE":356.5804,"ARG_OF_PERICENTER":84.975,"MEAN_ANOMALY":342.8047,"EPHEMERIS_TYPE":0,"CLASSIFICATION_TYPE":"U","NORAD_CAT_ID":47143,"ELEMENT_SET_NO":999,"REV_AT_EPOCH":588,"BSTAR":0.0020636614,"MEAN_MOTION_DOT":0.00102929,"MEAN_MOTION_DDOT":0},{"OBJECT_NAME":"STARLINK-1871","OBJECT_ID":"2020-088AM","EPOCH":"2026-02-20T06:38:17.997216","MEAN_MOTION":15.30067544,"ECCENTRICITY":9.978e-5,"INCLINATION":53.1565,"RA_OF_ASC_NODE":17.2509,"ARG_OF_PERICENTER":93.6163,"MEAN_ANOMALY":266.4952,"EPHEMERIS_TYPE":0,"CLASSIFICATION_TYPE":"U","NORAD_CAT_ID":47157,"ELEMENT_SET_NO":999,"REV_AT_EPOCH":28925,"BSTAR":0.0024271542,"MEAN_MOTION_DOT":0.00071928,"MEAN_MOTION_DDOT":0},{"OBJECT_NAME":"STARLINK-1873","OBJECT_ID":"2020-088AN","EPOCH":"2026-02-20T06:00:02.460672","MEAN_MOTION":15.53647584,"ECCENTRICITY":0.00109934,"INCLINATION":53.0525,"RA_OF_ASC_NODE":353.2209,"ARG_OF_PERICENTER":81.4995,"MEAN_ANOMALY":278.726,"EPHEMERIS_TYPE":0,"CLASSIFICATION_TYPE":"U","NORAD_CAT_ID":47158,"ELEMENT_SET_NO":999,"REV_AT_EPOCH":28958,"BSTAR":0.001285516,"MEAN_MOTION_DOT":0.0008412,"MEAN_MOTION_DDOT":0},{"OBJECT_NAME":"STARLINK-1876","OBJECT_ID":"2020-088AR","EPOCH":"2026-02-20T06:08:18.427776","MEAN_MOTION":15.5473275,"ECCENTRICITY":0.00069593,"INCLINATION":53.0526,"RA_OF_ASC_NODE":356.442,"ARG_OF_PERICENTER":89.5463,"MEAN_ANOMALY":270.6344,"EPHEMERIS_TYPE":0,"CLASSIFICATION_TYPE":"U","NORAD_CAT_ID":47161,"ELEMENT_SET_NO":999,"REV_AT_EPOCH":28954,"BSTAR":0.0013673906,"MEAN_MOTION_DOT":0.00093107,"MEAN_MOTION_DDOT":0},{"OBJECT_NAME":"STARLINK-1888","OBJECT_ID":"2020-088BB","EPOCH":"2026-02-20T03:09:03.145824","MEAN_MOTION":15.46149458,"ECCENTRICITY":0.00054722,"INCLINATION":53.0558,"RA_OF_ASC_NODE":3.342,"ARG_OF_PERICENTER":93.993,"MEAN_ANOMALY":266.1702,"EPHEMERIS_TYPE":0,"CLASSIFICATION_TYPE":"U","NORAD_CAT_ID":47171,"ELEMENT_SET_NO":999,"REV_AT_EPOCH":28943,"BSTAR":0.0006588731,"MEAN_MOTION_DOT":0.0003255,"MEAN_MOTION_DDOT":0},{"OBJECT_NAME":"STARLINK-1912","OBJECT_ID":"2020-088BJ","EPOCH":"2026-02-20T06:00:02.000160","MEAN_MOTION":15.52337589,"ECCENTRICITY":0.00095247,"INCLINATION":53.0549,"RA_OF_ASC_NODE":5.6122,"ARG_OF_PERICENTER":90.6573,"MEAN_ANOMALY":83.1597,"EPHEMERIS_TYPE":0,"CLASSIFICATION_TYPE":"U","NORAD_CAT_ID":47178,"ELEMENT_SET_NO":999,"REV_AT_EPOCH":589,"BSTAR":0.0030132242,"MEAN_MOTION_DOT":0.00191085,"MEAN_MOTION_DDOT":0},{"OBJECT_NAME":"STARLINK-1913","OBJECT_ID":"2020-088BK","EPOCH":"2026-02-20T07:11:24.134496","MEAN_MOTION":15.29362206,"ECCENTRICITY":0.00018079,"INCLINATION":53.157,"RA_OF_ASC_NODE":27.8182,"ARG_OF_PERICENTER":89.6006,"MEAN_ANOMALY":270.5201,"EPHEMERIS_TYPE":0,"CLASSIFICATION_TYPE":"U","NORAD_CAT_ID":47179,"ELEMENT_SET_NO":999,"REV_AT_EPOCH":28910,"BSTAR":0.00015874664,"MEAN_MOTION_DOT":4.228e-5,"MEAN_MOTION_DDOT":0},{"OBJECT_NAME":"STARLINK-2017","OBJECT_ID":"2021-005C","EPOCH":"2026-02-20T06:20:23.359200","MEAN_MOTION":15.30196884,"ECCENTRICITY":0.00012748,"INCLINATION":53.1578,"RA_OF_ASC_NODE":94.6086,"ARG_OF_PERICENTER":90.1295,"MEAN_ANOMALY":269.9852,"EPHEMERIS_TYPE":0,"CLASSIFICATION_TYPE":"U","NORAD_CAT_ID":47351,"ELEMENT_SET_NO":999,"REV_AT_EPOCH":28105,"BSTAR":0.00010163076,"MEAN_MOTION_DOT":2.652e-5,"MEAN_MOTION_DDOT":0},{"OBJECT_NAME":"STARLINK-2034","OBJECT_ID":"2021-005D","EPOCH":"2026-02-20T04:33:44.728128","MEAN_MOTION":15.30184414,"ECCENTRICITY":0.00013314,"INCLINATION":53.16,"RA_OF_ASC_NODE":134.028,"ARG_OF_PERICENTER":85.0049,"MEAN_ANOMALY":275.1104,"EPHEMERIS_TYPE":0,"CLASSIFICATION_TYPE":"U","NORAD_CAT_ID":47352,"ELEMENT_SET_NO":999,"REV_AT_EPOCH":28049,"BSTAR":4.1211712e-5,"MEAN_MOTION_DOT":8.61e-6,"MEAN_MOTION_DDOT":0}]
